QIANFAN-1               
1 60379U 24140A   25211.22794400  .00000137  00000+0  19355-3 0  9991
2 60379  88.9845 313.2838 0015897 241.9965 117.9578 13.50954676 49044
QIANFAN-2               
1 60380U 24140B   25211.55300508  .00000141  00000+0  20052-3 0  9992
2 60380  88.9831 313.1086 0012118 208.7680 151.2804 13.50961302 49152
QIANFAN-3               
1 60381U 24140C   25211.56116946  .00000138  00000+0  19459-3 0  9990
2 60381  88.9823 313.2503 0012803 222.8141 137.2014 13.50959396 49066
QIANFAN-4               
1 60382U 24140D   25211.53656169  .00000150  00000+0  21417-3 0  9995
2 60382  88.9848 313.1167 0012250 211.7209 148.3205 13.50954870 49176
QIANFAN-5               
1 60383U 24140E   25211.51191772  .00000137  00000+0  19429-3 0  9993
2 60383  88.9823 313.2812 0013716 235.9485 124.0364 13.50957949 49043
QIANFAN-6               
1 60384U 24140F   25211.53238833  .00000138  00000+0  19504-3 0  9991
2 60384  88.9850 312.9893 0012158 218.1536 141.8756 13.50954458 49244
QIANFAN-7               
1 60385U 24140G   25211.53316805  .00000611  00000+0  24253-3 0  9991
2 60385  88.9851 309.5876 0017350 122.4290 237.8585 14.27493837 51100
QIANFAN-8               
1 60386U 24140H   25211.54071669  .00000144  00000+0  20393-3 0  9991
2 60386  88.9851 313.2235 0015504 222.3403 137.6553 13.50958474 49126
